#aV2008  9  2  0  0   .00000000      96 DD+AD WGS84 FIT  NGA
## 1495 172800.00000000   900.00000000 54711  .0000000000000
+   31     2  3  4  5  6  7  8  9 10 11 12 13 14 15 16 17 18
+         19 20 21 22 23 24 25 26 27 28 29 30 31 32  0  0  0
+          0  0  0  0  0  0  0  0  0  0  0  0  0  0  0  0  0
+          0  0  0  0  0  0  0  0  0  0  0  0  0  0  0  0  0
+          0  0  0  0  0  0  0  0  0  0  0  0  0  0  0  0  0
++         0  0  0  0  0  0  0  0  0  0  0  0  0  0  0  0  0
++         0  0  0  0  0  0  0  0  0  0  0  0  0  0  0  0  0
++         0  0  0  0  0  0  0  0  0  0  0  0  0  0  0  0  0
++         0  0  0  0  0  0  0  0  0  0  0  0  0  0  0  0  0
++         0  0  0  0  0  0  0  0  0  0  0  0  0  0  0  0  0
%c cc cc ccc ccc cccc cccc cccc cccc ccccc ccccc ccccc ccccc
%c cc cc ccc ccc cccc cccc cccc cccc ccccc ccccc ccccc ccccc
%f  0.0000000  0.000000000  0.00000000000  0.000000000000000
%f  0.0000000  0.000000000  0.00000000000  0.000000000000000
%i    0    0    0    0      0      0      0      0         0
%i    0    0    0    0      0      0      0      0         0
/*      NGA, ST. LOUIS,MO.                                  
/*   EPHEMERIS COMPUTED FROM  3 DAYS OF DATA                
/* CCCCCCCCCCCCCCCCCCCCCCCCCCCCCCCCCCCCCCCCCCCCCCCCCCCCCCCCC
/* CCCCCCCCCCCCCCCCCCCCCCCCCCCCCCCCCCCCCCCCCCCCCCCCCCCCCCCCC
*  2008  9  2  3 15   .00000000                                                 
P  2    922.197011 -15909.993034  21147.892354    190.490007                    
V  2  25879.832606   8385.306905   4780.538685      -.027947                    
P  3  -5924.351085  21741.553833 -14050.259527    277.838733                    
V  3 -14315.212153  10730.680496  23452.194076       .051740                    
P  4  15139.413649  -9674.539990  19567.322188   -159.406125                    
V  4  23128.052830   9652.572219 -12687.341932      -.107910                    
P  5 -14980.561092 -17299.718033  13304.014429    198.376971                    
V  5  -2241.514249 -17414.681782 -24499.951223     -2.288131                    
P  6 -11507.349603  21411.975602 -10519.153647    167.471616                    
V  6 -12203.481090   6989.005212  27081.246995      -.005155                    
P  7  25575.050968   6678.144320  -3115.133794     14.039762                    
V  7   2817.328831   3773.917974  31425.997996       .031311                    
P  8  22328.665946  -1378.759826 -14771.411851   -168.231525                    
V  8  16523.726392   8125.716291  23875.341451      -.016643                    
P  9 -18509.720503 -14834.877966 -12719.484367     12.904630                    
V  9  14902.084284   2807.882266 -26178.537828       .019008                    
P 10   -296.615833 -25778.321019   5488.330631     -4.432606                    
V 10   4099.130890   6638.415633  30957.834469      -.003832                    
P 11  21190.435846  12057.645135 -11087.324695     20.597884                    
V 11 -14314.606827   1936.889283 -25287.226623      -.006829                    
P 12 -11168.054108 -21984.473898  10074.702295   -352.540633                    
V 12    -33.976042 -12851.492881 -28201.352605       .013745                    
P 13  20056.581169  -1428.732244  17231.442788    269.731406                    
V 13 -16732.275416  14390.021566  20532.561846       .013028                    
P 14 -21319.753579  15616.028860  -1832.617877   -224.883642                    
V 14    662.148273  -3098.525063 -32343.509170       .046574                    
P 15  -1993.118697 -17140.726175 -20162.284317   -170.220414                    
V 15  19990.737838 -16141.516354  11745.356065      -.064742                    
P 16  -3768.755297  23762.146089  11074.975064    109.144703                    
V 16  -4714.812121 -13442.627472  27589.985603      -.019436                    
P 17  21181.328726 -15711.681308  -2178.964450     38.874951                    
V 17   -263.004291   4104.589946 -31692.121430       .000612                    
P 18 -15786.098941  -3333.202873 -20951.544762   -138.430386                    
V 18  -3528.456697 -26835.773286   6495.086757       .041403                    
P 19   2302.488261  16387.808765 -20653.850175     35.180521                    
V 19 -21824.384848  14992.610498   9629.436444       .002996                    
P 20  13121.630133  19485.546955  12314.970925    105.799237                    
V 20    562.310846  16055.446859 -25731.756710      -.010356                    
P 21 -25429.234700  -3481.131356  -7760.090561     52.212252                    
V 21  -8329.931329  -6262.497790  28698.077437      -.014173                    
P 22 -12726.952559  12046.060756 -19779.318209    211.114398                    
V 22  -5019.226891 -25086.935258 -12013.887352      -.002587                    
P 23  13346.003671   7939.629130  21520.738009    371.496722                    
V 23 -20628.186691  18031.974195   5862.214541       .015569                    
P 24 -22230.650236 -13263.347512   5410.293840    121.909624                    
V 24   7443.524675   -424.058833  30726.855720       .030680                    
P 25  24228.711581   9568.043888   5024.890693   -226.808932                    
V 25  -6433.648925   1182.930373  31130.227825       .553545                    
P 26   3109.719319 -18311.312637 -19259.985382    319.325419                    
V 26  19223.655874 -13614.146002  16989.655158       .058312                    
P 27  25769.116030   4015.380972  -4671.248776    214.578212                    
V 27   5831.026559   4210.435034  31156.858427       .027629                    
P 28  12744.402622 -10241.677211 -20468.467564    -22.226473                    
V 28   5296.560973  26452.267412 -10079.696127      -.001780                    
P 29 -18671.969589  -1776.637290  18904.745049    -38.588813                    
V 29  17480.770741 -16188.342657  15871.035834       .008865                    
P 30 -15961.703946  -8984.255124  18911.892319     94.423740                    
V 30  -4070.085534 -24485.330679 -14698.496082       .021324                    
P 31 -11321.198767  11550.121280  21288.534827    -25.086722                    
V 31 -24860.463404  -9243.484504  -8182.480289      -.000440                    
P 32   7621.725828  24569.103398   7422.867927    315.355938                    
V 32  -1328.099133   8974.514004 -29923.525669       .010291                    
EOF
